{"type":"FeatureCollection","features":[
{"type":"Feature","properties":{"id":"a"},"geometry":{"type":"Polygon","coordinates":[[[-40,-10],[-40,10],[-39,10],[-38,10],[-37,10],[-36,10],[-35,10],[-34,10],[-33,10],[-32,10],[-31,10],[-30,10],[-29,10],[-28,10],[-27,10],[-26,10],[-25,10],[-24,10],[-23,10],[-22,10],[-21,10],[-20,10],[-20,-10],[-21,-10],[-22,-10],[-23,-10],[-24,-10],[-25,-10],[-26,-10],[-27,-10],[-28,-10],[-29,-10],[-30,-10],[-31,-10],[-32,-10],[-33,-10],[-34,-10],[-35,-10],[-36,-10],[-37,-10],[-38,-10],[-39,-10],[-40,-10]]]}},
{"type":"Feature","properties":{"id":"b"},"geometry":{"type":"Polygon","coordinates":[[[10,-5],[10,5],[11,5],[12,5],[13,5],[14,5],[15,5],[16,5],[17,5],[18,5],[19,5],[20,5],[20,-5],[19,-5],[18,-5],[17,-5],[16,-5],[15,-5],[14,-5],[13,-5],[12,-5],[11,-5],[10,-5]]]}}
]}
